NORAD_CAT_ID,OBJECT_NAME,OBJECT_TYPE,EPOCH,MEAN_MOTION,ECCENTRICITY,INCLINATION,RA_OF_ASC_NODE,ARG_OF_PERICENTER,MEAN_ANOMALY,BSTAR,MEAN_MOTION_DOT,MEAN_MOTION_DDOT,TLE_LINE0,TLE_LINE1,TLE_LINE2,SEMIMAJOR_AXIS,PERIOD,APOGEE,PERIGEE,DECAYED
53967.0,STARLINK-4634,PAYLOAD,2024-02-17 12:58:43,15.08840101,0.0001565,53.2186,356.1939,94.8162,265.3009,6.9836e-06,-1.77e-06,0.0,0 STARLINK-4634,1 53967U 22125D   24048.54078234 -.00000177  00000-0  69836-5 0  9996,2 53967  53.2186 356.1939 0001565  94.8162 265.3009 15.08840101 75926,6917.88,95.438,540.828,538.662,0.0
53967.0,STARLINK-4634,PAYLOAD,2024-02-17 20:55:39,15.0883775,0.0001606,53.219,354.7067,94.4753,265.6423,6.5659e-05,7.57e-06,0.0,0 STARLINK-4634,1 53967U 22125D   24048.87198477  .00000757  00000-0  65659-4 0  9995,2 53967  53.2190 354.7067 0001606  94.4753 265.6423 15.08837750 75979,6917.887,95.438,540.863,538.641,0.0
53967.0,STARLINK-4634,PAYLOAD,2024-02-18 12:49:30,15.08850326,0.0001727,53.2196,351.7346,88.9627,271.1563,0.00011441,1.534e-05,0.0,0 STARLINK-4634,1 53967U 22125D   24049.53437690  .00001534  00000-0  11441-3 0  9995,2 53967  53.2196 351.7346 0001727  88.9627 271.1563 15.08850326 76077,6917.849,95.437,540.909,538.519,0.0
53967.0,STARLINK-4634,PAYLOAD,2024-02-19 03:07:58,15.08838004,0.0001642,53.2195,349.0632,105.724,254.3934,4.2165e-05,3.83e-06,0.0,0 STARLINK-4634,1 53967U 22125D   24050.13054356  .00000383  00000-0  42165-4 0  9996,2 53967  53.2195 349.0632 0001642 105.7240 254.3934 15.08838004 76231,6917.886,95.438,540.887,538.616,0.0
53967.0,STARLINK-4634,PAYLOAD,2024-02-19 12:40:17,15.08841973,0.0001212,53.2169,347.2705,73.5516,286.5609,2.7938e-05,1.57e-06,0.0,0 STARLINK-4634,1 53967U 22125D   24050.52798000  .00000157  00000-0  27938-4 0  9990,2 53967  53.2169 347.2705 0001212  73.5516 286.5609 15.08841973 76228,6917.874,95.437,540.578,538.901,0.0
53967.0,STARLINK-4634,PAYLOAD,2024-02-20 02:58:47,15.08831964,0.0001861,53.2207,344.5972,98.9661,261.1542,-6.0044e-05,-1.243e-05,0.0,0 STARLINK-4634,1 53967U 22125D   24051.12415698 -.00001243  00000-0 -60044-4 0  9990,2 53967  53.2207 344.5972 0001861  98.9661 261.1542 15.08831964 76380,6917.905,95.438,541.057,538.483,0.0
53967.0,STARLINK-4634,PAYLOAD,2024-02-20 04:34:09,15.08837204,0.0001628,53.2195,344.2995,88.9093,271.2086,-1.1337e-05,-4.68e-06,0.0,0 STARLINK-4634,1 53967U 22125D   24051.19039268 -.00000468  00000-0 -11337-4 0  9991,2 53967  53.2195 344.2995 0001628  88.9093 271.2086 15.08837204 76396,6917.889,95.438,540.88,538.628,0.0
53967.0,STARLINK-4634,PAYLOAD,2024-02-20 12:31:05,15.08842807,0.0001655,53.2198,342.8157,87.0446,273.0736,-7.2824e-06,-4.04e-06,0.0,0 STARLINK-4634,1 53967U 22125D   24051.52158948 -.00000404  00000-0 -72824-5 0  9994,2 53967  53.2198 342.8157 0001655  87.0446 273.0736 15.08842807 76370,6917.872,95.437,540.882,538.592,0.0
53967.0,STARLINK-4634,PAYLOAD,2024-02-21 02:49:32,15.08853406,0.0001463,53.2178,340.1364,83.1779,276.938,0.00022763,3.338e-05,0.0,0 STARLINK-4634,1 53967U 22125D   24052.11774099  .00003338  00000-0  22763-3 0  9993,2 53967  53.2178 340.1364 0001463  83.1779 276.9380 15.08853406 76534,6917.839,95.437,540.716,538.692,0.0
53967.0,STARLINK-4634,PAYLOAD,2024-02-21 12:21:51,15.08841672,7.92e-05,53.2176,338.3504,97.3899,262.7183,0.00011295,1.51e-05,0.0,0 STARLINK-4634,1 53967U 22125D   24052.51518273  .00001510  00000-0  11295-3 0  9995,2 53967  53.2176 338.3504 0000792  97.3899 262.7183 15.08841672 76593,6917.875,95.437,540.288,539.192,0.0
53967.0,STARLINK-4634,PAYLOAD,2024-02-22 12:12:39,15.08845469,0.0001431,53.2189,333.8924,87.0147,273.1009,7.1781e-05,8.55e-06,0.0,0 STARLINK-4634,1 53967U 22125D   24053.50878655  .00000855  00000-0  71781-4 0  9996,2 53967  53.2189 333.8924 0001431  87.0147 273.1009 15.08845469 76676,6917.864,95.437,540.719,538.739,0.0
53967.0,STARLINK-4634,PAYLOAD,2024-02-22 21:44:57,15.08842211,0.0001378,53.219,332.1046,99.5855,260.5293,3.8048e-05,3.18e-06,0.0,0 STARLINK-4634,1 53967U 22125D   24053.90622649  .00000318  00000-0  38048-4 0  9993,2 53967  53.2190 332.1046 0001378  99.5855 260.5293 15.08842211 76733,6917.874,95.437,540.692,538.785,0.0
53967.0,STARLINK-4634,PAYLOAD,2024-02-23 00:55:44,15.08846421,0.0001423,53.2181,331.5126,90.9508,269.1647,-1.4089e-05,-5.12e-06,0.0,0 STARLINK-4634,1 53967U 22125D   24054.03870546 -.00000512  00000-0 -14089-4 0  9996,2 53967  53.2181 331.5126 0001423  90.9508 269.1647 15.08846421 76821,6917.861,95.437,540.71,538.741,0.0
53967.0,STARLINK-4634,PAYLOAD,2024-02-23 18:24:59,15.08837511,0.0001342,53.2176,328.2428,89.0981,271.0165,0.00018402,2.642e-05,0.0,0 STARLINK-4634,1 53967U 22125D   24054.76735176  .00002642  00000-0  18402-3 0  9991,2 53967  53.2176 328.2428 0001342  89.0981 271.0165 15.08837511 76936,6917.888,95.438,540.681,538.825,0.0
53967.0,STARLINK-4634,PAYLOAD,2024-02-23 21:35:45,15.08838628,0.0001465,53.2173,327.6476,91.778,268.338,0.00014941,2.091e-05,0.0,0 STARLINK-4634,1 53967U 22125D   24054.89983134  .00002091  00000-0  14941-3 0  9996,2 53967  53.2173 327.6476 0001465  91.7780 268.3380 15.08838628 76884,6917.885,95.438,540.763,538.736,0.0
53967.0,STARLINK-4634,PAYLOAD,2024-02-24 03:57:17,15.08841593,0.0001293,53.2179,326.4563,112.7924,247.3205,0.00020829,3.029e-05,0.0,0 STARLINK-4634,1 53967U 22125D   24055.16478883  .00003029  00000-0  20829-3 0  9991,2 53967  53.2179 326.4563 0001293 112.7924 247.3205 15.08841593 76920,6917.876,95.437,540.635,538.846,0.0
53967.0,STARLINK-4634,PAYLOAD,2024-02-25 10:09:37,15.08845185,0.0001276,53.217,320.8075,103.2736,256.8399,8.083e-05,9.99e-06,0.0,0 STARLINK-4634,1 53967U 22125D   24056.42334628  .00000999  00000-0  80830-4 0  9991,2 53967  53.2170 320.8075 0001276 103.2736 256.8399 15.08845185 77183,6917.865,95.437,540.612,538.847,0.0
53967.0,STARLINK-4634,PAYLOAD,2024-02-25 18:06:33,15.08838358,0.0001367,53.218,319.3215,102.86,257.2545,1.3684e-05,-7e-07,0.0,0 STARLINK-4634,1 53967U 22125D   24056.75455008 -.00000070  00000-0  13684-4 0  9997,2 53967  53.2180 319.3215 0001367 102.8600 257.2545 15.08838358 77237,6917.885,95.438,540.696,538.805,0.0
53967.0,STARLINK-4634,PAYLOAD,2024-02-25 22:52:42,15.08841753,0.0001488,53.2187,318.4294,90.014,270.1022,9.6485e-05,1.248e-05,0.0,0 STARLINK-4634,1 53967U 22125D   24056.95327030  .00001248  00000-0  96485-4 0  9999,2 53967  53.2187 318.4294 0001488  90.0140 270.1022 15.08841753 77194,6917.875,95.437,540.769,538.711,0.0
53967.0,STARLINK-4634,PAYLOAD,2024-02-26 03:38:51,15.08850694,0.0001265,53.2176,317.5349,101.1856,258.9278,0.00014542,2.028e-05,0.0,0 STARLINK-4634,1 53967U 22125D   24057.15198132  .00002028  00000-0  14542-3 0  9991,2 53967  53.2176 317.5349 0001265 101.1856 258.9278 15.08850694 77296,6917.848,95.437,540.588,538.838,0.0
53967.0,STARLINK-4634,PAYLOAD,2024-02-26 22:43:30,15.0883228,0.0001715,53.218,313.9603,70.9803,289.1375,6.9603e-05,8.2e-06,0.0,0 STARLINK-4634,1 53967U 22125D   24057.94687742  .00000820  00000-0  69603-4 0  9995,2 53967  53.2180 313.9603 0001715  70.9803 289.1375 15.08832280 77340,6917.904,95.438,540.955,538.583,0.0
53967.0,STARLINK-4634,PAYLOAD,2024-02-27 01:54:16,15.08828876,0.000124,53.2188,313.3644,65.1636,294.9485,0.00019959,2.889e-05,0.0,0 STARLINK-4634,1 53967U 22125D   24058.07935328  .00002889  00000-0  19959-3 0  9991,2 53967  53.2188 313.3644 0001240  65.1636 294.9485 15.08828876 77432,6917.914,95.438,540.637,538.922,0.0
53967.0,STARLINK-4634,PAYLOAD,2024-02-27 09:51:11,15.08836122,0.0001666,53.219,311.8853,80.4611,279.657,8.3419e-05,1.04e-05,0.0,0 STARLINK-4634,1 53967U 22125D   24058.41055464  .00001040  00000-0  83419-4 0  9994,2 53967  53.2190 311.8853 0001666  80.4611 279.6570 15.08836122 77411,6917.892,95.438,540.91,538.605,0.0
53967.0,STARLINK-4634,PAYLOAD,2024-02-27 22:34:17,15.08837028,0.0001602,53.2181,309.5066,90.1724,269.9452,-1.6664e-06,-3.15e-06,0.0,0 STARLINK-4634,1 53967U 22125D   24058.94047579 -.00000315  00000-0 -16664-5 0  9995,2 53967  53.2181 309.5066 0001602  90.1724 269.9452 15.08837028 77499,6917.889,95.438,540.863,538.646,0.0
53967.0,STARLINK-4634,PAYLOAD,2024-02-28 09:41:59,15.08838493,0.0001522,53.2176,307.4259,92.754,267.3627,5.5617e-05,5.97e-06,0.0,0 STARLINK-4634,1 53967U 22125D   24059.40415654  .00000597  00000-0  55617-4 0  9990,2 53967  53.2176 307.4259 0001522  92.7540 267.3627 15.08838493 77638,6917.885,95.438,540.803,538.697,0.0
53967.0,STARLINK-4634,PAYLOAD,2024-02-28 22:25:04,15.08838558,0.0001489,53.2172,305.0474,90.8733,269.243,0.0001043,1.372e-05,0.0,0 STARLINK-4634,1 53967U 22125D   24059.93407857  .00001372  00000-0  10430-3 0  9999,2 53967  53.2172 305.0474 0001489  90.8733 269.2430 15.08838558 77648,6917.885,95.438,540.78,538.72,0.0
53967.0,STARLINK-4634,PAYLOAD,2024-02-29 09:32:46,15.08838848,0.0001424,53.2169,302.9659,90.7113,269.4042,8.8029e-05,1.113e-05,0.0,0 STARLINK-4634,1 53967U 22125D   24060.39775937  .00001113  00000-0  88029-4 0  9991,2 53967  53.2169 302.9659 0001424  90.7113 269.4042 15.08838848 77716,6917.884,95.438,540.734,538.764,0.0
53967.0,STARLINK-4634,PAYLOAD,2024-02-29 15:54:19,15.08836247,0.0001368,53.2173,301.7771,91.6478,268.4671,0.00010538,1.389e-05,0.0,0 STARLINK-4634,1 53967U 22125D   24060.66272235  .00001389  00000-0  10538-3 0  9998,2 53967  53.2173 301.7771 0001368  91.6478 268.4671 15.08836247 77824,6917.892,95.438,540.703,538.81,0.0
53967.0,STARLINK-4634,PAYLOAD,2024-02-29 22:15:51,15.08832589,0.0001253,53.2168,300.588,94.5087,265.6048,0.00026774,3.975e-05,0.0,0 STARLINK-4634,1 53967U 22125D   24060.92768281  .00003975  00000-0  26774-3 0  9990,2 53967  53.2168 300.5880 0001253  94.5087 265.6048 15.08832589 77795,6917.903,95.438,540.635,538.901,0.0
53967.0,STARLINK-4634,PAYLOAD,2024-03-01 01:26:37,15.08846178,0.0001358,53.2172,299.9936,90.1466,269.9682,0.00012877,1.762e-05,0.0,0 STARLINK-4634,1 53967U 22125D   24061.06015531  .00001762  00000-0  12877-3 0  9990,2 53967  53.2172 299.9936 0001358  90.1466 269.9682 15.08846178 77882,6917.862,95.437,540.666,538.787,0.0
